STARLINK-36369          
1 67723U 26026C   26063.83336806 -.01991462  00000+0 -21922-1 0  9995
2 67723  97.2845 118.2472 0001658  66.6512 331.5957 15.66287519  4538
STARLINK-36752          
1 67724U 26026D   26063.83336806 -.01995477  00000+0 -20844-1 0  9998
2 67724  97.2845 118.2571 0001673  68.6330 352.6296 15.67582951  4535
STARLINK-36754          
1 67725U 26026E   26063.83336806 -.01992767  00000+0 -23107-1 0  9993
2 67725  97.2844 118.2459 0001575  68.7570 326.3651 15.64996829  4531
STARLINK-36755          
1 67726U 26026F   26063.83336806 -.01983860  00000+0 -25335-1 0  9993
2 67726  97.2843 118.2339 0001580  75.6462 291.3974 15.62542883  4535
STARLINK-36741          
1 67727U 26026G   26063.83336806 -.01983987  00000+0 -24238-1 0  9995
2 67727  97.2843 118.2433 0001567  72.4467 316.5983 15.63669331  4535
STARLINK-36757          
1 67728U 26026H   26063.83336806 -.01996971  00000+0 -20388-1 0  9995
2 67728  97.2845 118.2707 0001777  68.7068  24.3004 15.68142415  4532
STARLINK-36751          
1 67729U 26026J   26063.83336806 -.01996630  00000+0 -19912-1 0  9999
2 67729  97.2846 118.2795 0001870  66.7659  46.3538 15.68710730  4536
STARLINK-36747          
1 67730U 26026K   26063.83336806 -.01998791  00000+0 -20019-1 0  9991
2 67730  97.2847 118.2752 0001822  66.2891  37.2378 15.68611097  4539
STARLINK-36315          
1 67731U 26026L   26063.83336806 -.01998348  00000+0 -19787-1 0  9990
2 67731  97.2844 118.2826 0001828  74.8605  45.5646 15.68887532  4532
STARLINK-36260          
1 67732U 26026M   26063.83336806 -.01992677  00000+0 -19417-1 0  9990
2 67732  97.2847 118.2873 0001912  67.8017  63.1800 15.69264323  4537
STARLINK-36746          
1 67733U 26026N   26063.83336806  .00030734  00000+0  56572-3 0  9990
2 67733  97.2847 118.1302 0001675  62.4677  60.3178 15.49129171  4539
STARLINK-36749          
1 67734U 26026P   26063.83336806 -.01992241  00000+0 -25009-1 0  9993
2 67734  97.2845 118.2585 0001660  71.6327 352.1725 15.62994459  4534
STARLINK-36691          
1 67735U 26026Q   26063.83336806 -.01988067  00000+0 -18710-1 0  9996
2 67735  97.2840 118.3028 0001915  71.6427  98.4346 15.70091685  4679
STARLINK-36317          
1 67736U 26026R   26063.83336806 -.01992270  00000+0 -18953-1 0  9997
2 67736  97.2843 118.2973 0001931  70.2457  87.9897 15.69840159  4532
STARLINK-36330          
1 67737U 26026S   26063.83336806 -.01998858  00000+0 -18742-1 0  9992
2 67737  97.2842 118.3054 0001924  72.8199 104.3933 15.70197707  4537
STARLINK-36327          
1 67738U 26026T   26063.83336806 -.01993281  00000+0 -18459-1 0  9993
2 67738  97.2840 118.3100 0001920  70.3495 117.4671 15.70485637  4532
STARLINK-36329          
1 67739U 26026U   26063.83336806 -.01997432  00000+0 -17712-1 0  9997
2 67739  97.2841 118.3304 0001798  73.1302 171.5237 15.71523207  4537
