[{"OBJECT_NAME":"STARLINK-36369","OBJECT_ID":"2026-026C","EPOCH":"2026-03-04T20:00:03.000384","MEAN_MOTION":15.66287519,"ECCENTRICITY":0.0001658,"INCLINATION":97.2845,"RA_OF_ASC_NODE":118.2472,"ARG_OF_PERICENTER":66.6512,"MEAN_ANOMALY":331.5957,"EPHEMERIS_TYPE":0,"CLASSIFICATION_TYPE":"U","NORAD_CAT_ID":67723,"ELEMENT_SET_NO":999,"REV_AT_EPOCH":453,"BSTAR":-0.021922,"MEAN_MOTION_DOT":-0.01991462,"MEAN_MOTION_DDOT":0},{"OBJECT_NAME":"STARLINK-36752","OBJECT_ID":"2026-026D","EPOCH":"2026-03-04T20:00:03.000384","MEAN_MOTION":15.67582951,"ECCENTRICITY":0.0001673,"INCLINATION":97.2845,"RA_OF_ASC_NODE":118.2571,"ARG_OF_PERICENTER":68.633,"MEAN_ANOMALY":352.6296,"EPHEMERIS_TYPE":0,"CLASSIFICATION_TYPE":"U","NORAD_CAT_ID":67724,"ELEMENT_SET_NO":999,"REV_AT_EPOCH":453,"BSTAR":-0.020844,"MEAN_MOTION_DOT":-0.01995477,"MEAN_MOTION_DDOT":0},{"OBJECT_NAME":"STARLINK-36754","OBJECT_ID":"2026-026E","EPOCH":"2026-03-04T20:00:03.000384","MEAN_MOTION":15.64996829,"ECCENTRICITY":0.0001575,"INCLINATION":97.2844,"RA_OF_ASC_NODE":118.2459,"ARG_OF_PERICENTER":68.757,"MEAN_ANOMALY":326.3651,"EPHEMERIS_TYPE":0,"CLASSIFICATION_TYPE":"U","NORAD_CAT_ID":67725,"ELEMENT_SET_NO":999,"REV_AT_EPOCH":453,"BSTAR":-0.023107,"MEAN_MOTION_DOT":-0.01992767,"MEAN_MOTION_DDOT":0},{"OBJECT_NAME":"STARLINK-36755","OBJECT_ID":"2026-026F","EPOCH":"2026-03-04T20:00:03.000384","MEAN_MOTION":15.62542883,"ECCENTRICITY":0.000158,"INCLINATION":97.2843,"RA_OF_ASC_NODE":118.2339,"ARG_OF_PERICENTER":75.6462,"MEAN_ANOMALY":291.3974,"EPHEMERIS_TYPE":0,"CLASSIFICATION_TYPE":"U","NORAD_CAT_ID":67726,"ELEMENT_SET_NO":999,"REV_AT_EPOCH":453,"BSTAR":-0.025335,"MEAN_MOTION_DOT":-0.0198386,"MEAN_MOTION_DDOT":0},{"OBJECT_NAME":"STARLINK-36741","OBJECT_ID":"2026-026G","EPOCH":"2026-03-04T20:00:03.000384","MEAN_MOTION":15.63669331,"ECCENTRICITY":0.0001567,"INCLINATION":97.2843,"RA_OF_ASC_NODE":118.2433,"ARG_OF_PERICENTER":72.4467,"MEAN_ANOMALY":316.5983,"EPHEMERIS_TYPE":0,"CLASSIFICATION_TYPE":"U","NORAD_CAT_ID":67727,"ELEMENT_SET_NO":999,"REV_AT_EPOCH":453,"BSTAR":-0.024238,"MEAN_MOTION_DOT":-0.01983987,"MEAN_MOTION_DDOT":0},{"OBJECT_NAME":"STARLINK-36757","OBJECT_ID":"2026-026H","EPOCH":"2026-03-04T20:00:03.000384","MEAN_MOTION":15.68142415,"ECCENTRICITY":0.0001777,"INCLINATION":97.2845,"RA_OF_ASC_NODE":118.2707,"ARG_OF_PERICENTER":68.7068,"MEAN_ANOMALY":24.3004,"EPHEMERIS_TYPE":0,"CLASSIFICATION_TYPE":"U","NORAD_CAT_ID":67728,"ELEMENT_SET_NO":999,"REV_AT_EPOCH":453,"BSTAR":-0.020388,"MEAN_MOTION_DOT":-0.01996971,"MEAN_MOTION_DDOT":0},{"OBJECT_NAME":"STARLINK-36751","OBJECT_ID":"2026-026J","EPOCH":"2026-03-04T20:00:03.000384","MEAN_MOTION":15.6871073,"ECCENTRICITY":0.000187,"INCLINATION":97.2846,"RA_OF_ASC_NODE":118.2795,"ARG_OF_PERICENTER":66.7659,"MEAN_ANOMALY":46.3538,"EPHEMERIS_TYPE":0,"CLASSIFICATION_TYPE":"U","NORAD_CAT_ID":67729,"ELEMENT_SET_NO":999,"REV_AT_EPOCH":453,"BSTAR":-0.019912,"MEAN_MOTION_DOT":-0.0199663,"MEAN_MOTION_DDOT":0},{"OBJECT_NAME":"STARLINK-36747","OBJECT_ID":"2026-026K","EPOCH":"2026-03-04T20:00:03.000384","MEAN_MOTION":15.68611097,"ECCENTRICITY":0.0001822,"INCLINATION":97.2847,"RA_OF_ASC_NODE":118.2752,"ARG_OF_PERICENTER":66.2891,"MEAN_ANOMALY":37.2378,"EPHEMERIS_TYPE":0,"CLASSIFICATION_TYPE":"U","NORAD_CAT_ID":67730,"ELEMENT_SET_NO":999,"REV_AT_EPOCH":453,"BSTAR":-0.020019,"MEAN_MOTION_DOT":-0.01998791,"MEAN_MOTION_DDOT":0},{"OBJECT_NAME":"STARLINK-36315","OBJECT_ID":"2026-026L","EPOCH":"2026-03-04T20:00:03.000384","MEAN_MOTION":15.68887532,"ECCENTRICITY":0.0001828,"INCLINATION":97.2844,"RA_OF_ASC_NODE":118.2826,"ARG_OF_PERICENTER":74.8605,"MEAN_ANOMALY":45.5646,"EPHEMERIS_TYPE":0,"CLASSIFICATION_TYPE":"U","NORAD_CAT_ID":67731,"ELEMENT_SET_NO":999,"REV_AT_EPOCH":453,"BSTAR":-0.019787,"MEAN_MOTION_DOT":-0.01998348,"MEAN_MOTION_DDOT":0},{"OBJECT_NAME":"STARLINK-36260","OBJECT_ID":"2026-026M","EPOCH":"2026-03-04T20:00:03.000384","MEAN_MOTION":15.69264323,"ECCENTRICITY":0.0001912,"INCLINATION":97.2847,"RA_OF_ASC_NODE":118.2873,"ARG_OF_PERICENTER":67.8017,"MEAN_ANOMALY":63.18,"EPHEMERIS_TYPE":0,"CLASSIFICATION_TYPE":"U","NORAD_CAT_ID":67732,"ELEMENT_SET_NO":999,"REV_AT_EPOCH":453,"BSTAR":-0.019417,"MEAN_MOTION_DOT":-0.01992677,"MEAN_MOTION_DDOT":0},{"OBJECT_NAME":"STARLINK-36746","OBJECT_ID":"2026-026N","EPOCH":"2026-03-04T20:00:03.000384","MEAN_MOTION":15.49129171,"ECCENTRICITY":0.0001675,"INCLINATION":97.2847,"RA_OF_ASC_NODE":118.1302,"ARG_OF_PERICENTER":62.4677,"MEAN_ANOMALY":60.3178,"EPHEMERIS_TYPE":0,"CLASSIFICATION_TYPE":"U","NORAD_CAT_ID":67733,"ELEMENT_SET_NO":999,"REV_AT_EPOCH":453,"BSTAR":0.00056572,"MEAN_MOTION_DOT":0.00030734,"MEAN_MOTION_DDOT":0},{"OBJECT_NAME":"STARLINK-36749","OBJECT_ID":"2026-026P","EPOCH":"2026-03-04T20:00:03.000384","MEAN_MOTION":15.62994459,"ECCENTRICITY":0.000166,"INCLINATION":97.2845,"RA_OF_ASC_NODE":118.2585,"ARG_OF_PERICENTER":71.6327,"MEAN_ANOMALY":352.1725,"EPHEMERIS_TYPE":0,"CLASSIFICATION_TYPE":"U","NORAD_CAT_ID":67734,"ELEMENT_SET_NO":999,"REV_AT_EPOCH":453,"BSTAR":-0.025009,"MEAN_MOTION_DOT":-0.01992241,"MEAN_MOTION_DDOT":0},{"OBJECT_NAME":"STARLINK-36691","OBJECT_ID":"2026-026Q","EPOCH":"2026-03-04T20:00:03.000384","MEAN_MOTION":15.70091685,"ECCENTRICITY":0.0001915,"INCLINATION":97.284,"RA_OF_ASC_NODE":118.3028,"ARG_OF_PERICENTER":71.6427,"MEAN_ANOMALY":98.4346,"EPHEMERIS_TYPE":0,"CLASSIFICATION_TYPE":"U","NORAD_CAT_ID":67735,"ELEMENT_SET_NO":999,"REV_AT_EPOCH":467,"BSTAR":-0.01871,"MEAN_MOTION_DOT":-0.01988067,"MEAN_MOTION_DDOT":0},{"OBJECT_NAME":"STARLINK-36317","OBJECT_ID":"2026-026R","EPOCH":"2026-03-04T20:00:03.000384","MEAN_MOTION":15.69840159,"ECCENTRICITY":0.0001931,"INCLINATION":97.2843,"RA_OF_ASC_NODE":118.2973,"ARG_OF_PERICENTER":70.2457,"MEAN_ANOMALY":87.9897,"EPHEMERIS_TYPE":0,"CLASSIFICATION_TYPE":"U","NORAD_CAT_ID":67736,"ELEMENT_SET_NO":999,"REV_AT_EPOCH":453,"BSTAR":-0.018953,"MEAN_MOTION_DOT":-0.0199227,"MEAN_MOTION_DDOT":0},{"OBJECT_NAME":"STARLINK-36330","OBJECT_ID":"2026-026S","EPOCH":"2026-03-04T20:00:03.000384","MEAN_MOTION":15.70197707,"ECCENTRICITY":0.0001924,"INCLINATION":97.2842,"RA_OF_ASC_NODE":118.3054,"ARG_OF_PERICENTER":72.8199,"MEAN_ANOMALY":104.3933,"EPHEMERIS_TYPE":0,"CLASSIFICATION_TYPE":"U","NORAD_CAT_ID":67737,"ELEMENT_SET_NO":999,"REV_AT_EPOCH":453,"BSTAR":-0.018742,"MEAN_MOTION_DOT":-0.01998858,"MEAN_MOTION_DDOT":0},{"OBJECT_NAME":"STARLINK-36327","OBJECT_ID":"2026-026T","EPOCH":"2026-03-04T20:00:03.000384","MEAN_MOTION":15.70485637,"ECCENTRICITY":0.000192,"INCLINATION":97.284,"RA_OF_ASC_NODE":118.31,"ARG_OF_PERICENTER":70.3495,"MEAN_ANOMALY":117.4671,"EPHEMERIS_TYPE":0,"CLASSIFICATION_TYPE":"U","NORAD_CAT_ID":67738,"ELEMENT_SET_NO":999,"REV_AT_EPOCH":453,"BSTAR":-0.018459,"MEAN_MOTION_DOT":-0.01993281,"MEAN_MOTION_DDOT":0},{"OBJECT_NAME":"STARLINK-36329","OBJECT_ID":"2026-026U","EPOCH":"2026-03-04T20:00:03.000384","MEAN_MOTION":15.71523207,"ECCENTRICITY":0.0001798,"INCLINATION":97.2841,"RA_OF_ASC_NODE":118.3304,"ARG_OF_PERICENTER":73.1302,"MEAN_ANOMALY":171.5237,"EPHEMERIS_TYPE":0,"CLASSIFICATION_TYPE":"U","NORAD_CAT_ID":67739,"ELEMENT_SET_NO":999,"REV_AT_EPOCH":453,"BSTAR":-0.017712,"MEAN_MOTION_DOT":-0.01997432,"MEAN_MOTION_DDOT":0}]
